MEAN_MOTION;ECCENTRICITY;INCLINATION;RA_OF_ASC_NODE;ARG_OF_PERICENTER;MEAN_ANOMALY;BSTAR;MEAN_MOTION_DOT;MEAN_MOTION_DDOT;TYPE
1.00371521;0.0010157;2.4899;293.4561;249.6559;230.0429;0;-2.45E-6;0;Intelsat
1.00371451;0.0010164;2.4893;293.4554;249.6093;333.8688;0;-2.47E-6;0;Intelsat
1.00371288;0.0010161;2.4878;293.4519;249.471;233.4291;0;-2.51E-6;0;Intelsat
1.00371095;0.0010165;2.4866;293.4496;249.4083;81.0548;0;-2.54E-6;0;Intelsat
1.00370883;0.0010168;2.4847;293.446;249.2343;47.1688;0;-2.59E-6;0;Intelsat
1.00370779;0.0010161;2.4837;293.4442;249.1688;214.1869;0;-2.61E-6;0;Intelsat
1.00370599;0.0010168;2.4825;293.4417;249.1095;61.7949;0;-2.63E-6;0;Intelsat
1.00370308;0.0010166;2.4804;293.4375;248.9691;65.1279;0;-2.66E-6;0;Intelsat
1.00370193;0.0010157;2.4794;293.4362;248.8982;220.8259;0;-2.67E-6;0;Intelsat
1.00369942;0.0010153;2.4773;293.4316;248.7742;224.1431;0;-2.68E-6;0;Intelsat
1.00369619;0.0010147;2.4751;293.4274;248.685;227.4248;0;-2.68E-6;0;Intelsat
1.00369525;0.0010149;2.4745;293.4269;248.6637;328.8402;0;-2.68E-6;0;Intelsat
1.00369308;0.001014;2.4729;293.4235;248.5979;230.6853;0;-2.68E-6;0;Intelsat
1.00369029;0.0010134;2.4709;293.4197;248.4856;208.0599;0;-2.67E-6;0;Intelsat
1.00368915;0.0010133;2.4701;293.4188;248.3665;344.1153;0;-2.68E-6;0;Intelsat
1.00368715;0.0010124;2.4685;293.4149;248.3069;237.3595;0;-2.67E-6;0;Intelsat
1.00368393;0.0010114;2.4663;293.4103;248.1777;240.6724;0;-2.68E-6;0;Intelsat
1.00368221;0.0010117;2.4654;293.4085;248.0741;36.4218;0;-2.68E-6;0;Intelsat
1.00368075;0.0010107;2.4641;293.4057;248.0338;243.9957;0;-2.68E-6;0;Intelsat
1.00367924;0.0010109;2.463;293.4034;247.8833;65.7415;0;-2.69E-6;0;Intelsat
1.003678;0.0010102;2.462;293.4016;247.847;221.3804;0;-2.69E-6;0;Intelsat
1.00367604;0.0010103;2.4608;293.3987;247.702;69.0583;0;-2.7E-6;0;Intelsat
1.00367459;0.0010096;2.4597;293.3966;247.6337;250.7268;0;-2.7E-6;0;Intelsat
1.00367124;0.0010094;2.4574;293.3922;247.4135;254.1045;0;-2.7E-6;0;Intelsat
1.00366986;0.0010097;2.4563;293.39;247.2629;75.8807;0;-2.71E-6;0;Intelsat
1.00366817;0.0010094;2.4552;293.388;247.1672;257.5303;0;-2.7E-6;0;Intelsat
1.00366509;0.0010097;2.4531;293.3846;246.972;234.9629;0;-2.7E-6;0;Intelsat
1.00366295;0.0010102;2.4515;293.3823;246.7344;134.6092;0;-2.7E-6;0;Intelsat
1.00366212;0.0010102;2.4508;293.3807;246.6773;238.4343;0;-2.69E-6;0;Intelsat
1.00365896;0.0010109;2.4486;293.3771;246.4403;241.8411;0;-2.68E-6;0;Intelsat
1.00365584;0.0010118;2.4463;293.373;246.1821;245.2626;0;-2.66E-6;0;Intelsat
1.00365483;0.0010116;2.4457;293.3724;246.1063;349.1033;0;-2.66E-6;0;Intelsat
1.00365367;0.0010126;2.4447;293.3707;245.9772;144.8818;0;-2.65E-6;0;Intelsat
1.00365267;0.0010131;2.444;293.369;245.9192;248.7058;0;-2.65E-6;0;Intelsat
1.00365025;0.0010137;2.4426;293.3661;245.7353;117.2685;0;-2.65E-6;0;Intelsat
1.00364907;0.0010144;2.4418;293.3643;245.655;252.1344;0;-2.64E-6;0;Intelsat
1.00364636;0.0010161;2.4395;293.3596;245.4394;255.5225;0;-2.64E-6;0;Intelsat
1.00364538;0.0010164;2.4389;293.3587;245.3694;359.357;0;-2.65E-6;0;Intelsat
1.00364292;0.0010179;2.4373;293.3549;245.19;258.9411;0;-2.65E-6;0;Intelsat
1.00363967;0.0010201;2.4351;293.35;244.9555;262.3134;0;-2.67E-6;0;Intelsat
1.00363849;0.0010207;2.4344;293.3489;244.9154;6.1208;0;-2.69E-6;0;Intelsat
1.00363756;0.0010211;2.4336;293.3472;244.8449;135.9173;0;-2.69E-6;0;Intelsat
1.00363348;0.0010237;2.4308;293.3409;244.6238;243.0588;0;-2.75E-6;0;Intelsat
1.00363204;0.0010248;2.43;293.3398;244.6092;12.7768;0;-2.77E-6;0;Intelsat
1.00362969;0.001026;2.4285;293.3364;244.4762;272.2808;0;-2.8E-6;0;Intelsat
1.00362654;0.0010279;2.4265;293.3324;244.3377;249.6547;0;-2.84E-6;0;Intelsat
1.00362422;0.001029;2.4251;293.3303;244.3399;123.1289;0;-2.87E-6;0;Intelsat
1.00362275;0.0010297;2.4241;293.3284;244.2592;278.8222;0;-2.89E-6;0;Intelsat
1.00361949;0.0010313;2.4219;293.3247;244.1739;282.0827;0;-2.92E-6;0;Intelsat
1.00361591;0.0010325;2.4199;293.3208;244.0822;259.384;0;-2.93E-6;0;Intelsat
1.00361216;0.0010337;2.4175;293.3167;244.0308;288.5257;0;-2.94E-6;0;Intelsat
1.00361027;0.0010344;2.4163;293.3147;244.0377;136.042;0;-2.94E-6;0;Intelsat
1.00360802;0.0010349;2.415;293.3126;243.9688;343.6012;0;-2.94E-6;0;Intelsat
1.00360526;0.0010353;2.4132;293.3082;243.9147;268.9997;0;-2.93E-6;0;Intelsat
1.00360135;0.0010358;2.411;293.3036;243.868;272.2041;0;-2.92E-6;0;Intelsat
1.00360021;0.0010365;2.4103;293.3028;243.8377;15.9942;0;-2.92E-6;0;Intelsat
1.00359786;0.0010363;2.4088;293.2988;243.8045;275.4058;0;-2.91E-6;0;Intelsat
1.00359412;0.0010372;2.4065;293.294;243.6905;278.6768;0;-2.9E-6;0;Intelsat
1.00359286;0.0010378;2.4059;293.2929;243.6486;22.4729;0;-2.91E-6;0;Intelsat
1.00359153;0.0010381;2.4051;293.2913;243.6444;152.1766;0;-2.9E-6;0;Intelsat
1.00359023;0.0010378;2.4043;293.289;243.5847;281.9079;0;-2.9E-6;0;Intelsat
1.00358794;0.0010389;2.4028;293.2864;243.5103;155.4722;0;-2.9E-6;0;Intelsat
1.00358672;0.0010386;2.402;293.2842;243.453;285.2117;0;-2.9E-6;0;Intelsat
1.00358548;0.0010392;2.4013;293.283;243.3925;29.0304;0;-2.91E-6;0;Intelsat
1.0035844;0.0010395;2.4007;293.2816;243.3927;132.7714;0;-2.9E-6;0;Intelsat
1.00358276;0.0010391;2.3997;293.2793;243.3338;288.4738;0;-2.9E-6;0;Intelsat
1.00357911;0.0010404;2.3975;293.2748;243.1715;291.7472;0;-2.9E-6;0;Intelsat
1.00357694;0.0010416;2.3962;293.2725;243.0766;139.3893;0;-2.9E-6;0;Intelsat
1.00357547;0.0010415;2.3952;293.2704;243.0188;295.0667;0;-2.89E-6;0;Intelsat
1.00357231;0.0010429;2.3931;293.2658;242.8648;272.4257;0;-2.88E-6;0;Intelsat
1.00356967;0.001044;2.3917;293.2633;242.7533;135.7101;0;-2.87E-6;0;Intelsat
1.00356691;0.0010449;2.3901;293.2604;242.6133;19.5468;0;-2.86E-6;0;Intelsat
1.00356431;0.0010467;2.3883;293.2564;242.4714;304.9813;0;-2.84E-6;0;Intelsat
1.00356059;0.0010491;2.386;293.2513;242.2806;308.2838;0;-2.82E-6;0;Intelsat
1.00355883;0.0010502;2.385;293.2491;242.1863;104.0117;0;-2.82E-6;0;Intelsat
1.00355846;0.0010505;2.3847;293.2489;242.1785;155.8978;0;-2.81E-6;0;Intelsat
1.00355711;0.0010512;2.3839;293.2467;242.1316;285.6438;0;-2.8E-6;0;Intelsat
1.0035548;0.0010531;2.3824;293.2438;241.9903;159.2353;0;-2.79E-6;0;Intelsat
1.00355352;0.001054;2.3816;293.2416;241.9434;288.9549;0;-2.78E-6;0;Intelsat
1.00355135;0.0010554;2.3804;293.239;241.8387;124.9191;0;-2.78E-6;0;Intelsat
1.00354607;0.00106;2.377;293.2314;241.6023;295.5377;0;-2.77E-6;0;Intelsat
1.00354399;0.0010614;2.3758;293.2285;241.5224;143.1312;0;-2.78E-6;0;Intelsat
1.00354229;0.001063;2.3748;293.226;241.4657;298.82;0;-2.78E-6;0;Intelsat
1.00353889;0.0010658;2.3727;293.2207;241.3497;276.108;0;-2.8E-6;0;Intelsat
1.00353654;0.0010677;2.3713;293.2175;241.2828;149.6116;0;-2.82E-6;0;Intelsat
1.00353278;0.0010709;2.3691;293.2122;241.1976;152.8171;0;-2.86E-6;0;Intelsat
1.00352888;0.0010739;2.3669;293.2072;241.1382;155.9974;0;-2.9E-6;0;Intelsat
1.00352752;0.0010753;2.3661;293.205;241.0966;285.7311;0;-2.91E-6;0;Intelsat
1.00352548;0.0010771;2.3648;293.2025;241.0959;133.238;0;-2.94E-6;0;Intelsat
1.00352168;0.0010798;2.3628;293.1981;241.0778;110.4452;0;-2.97E-6;0;Intelsat
1.00351955;0.0010812;2.3615;293.1957;241.036;317.9701;0;-2.98E-6;0;Intelsat
1.00351867;0.0010819;2.361;293.1945;241.0606;35.7596;0;-2.99E-6;0;Intelsat
1.00351592;0.0010831;2.3594;293.1911;241.0271;295.1323;0;-3.0E-6;0;Intelsat
1.00351215;0.0010852;2.3572;293.1863;241.0261;298.267;0;-3.0E-6;0;Intelsat
1.00351102;0.0010864;2.3565;293.185;241.0478;41.9966;0;-3.01E-6;0;Intelsat
1.00350824;0.0010871;2.355;293.1813;241.0277;301.3711;0;-3.0E-6;0;Intelsat
1.00350427;0.0010883;2.3527;293.176;241.0474;304.4789;0;-2.99E-6;0;Intelsat
1.00350291;0.001089;2.352;293.1743;241.0704;48.1983;0;-2.98E-6;0;Intelsat
1.00350202;0.0010886;2.3514;293.173;241.1147;151.9102;0;-2.98E-6;0;Intelsat
1.00349608;0.0010902;2.3482;293.1647;241.069;310.6553;0;-2.96E-6;0;Intelsat
1.00349477;0.0010909;2.3475;293.1628;241.0763;54.3975;0;-2.96E-6;0;Intelsat
1.00349179;0.0010917;2.3459;293.159;241.0398;322.8567;0;-2.95E-6;0;Intelsat
1.00348975;0.0010932;2.3446;293.1557;241.0506;161.2686;0;-2.94E-6;0;Intelsat
1.00348811;0.0010934;2.3437;293.153;241.0024;316.9301;0;-2.94E-6;0;Intelsat
1.00348567;0.0010946;2.3424;293.1499;241.0019;164.4327;0;-2.94E-6;0;Intelsat
1.00348398;0.0010951;2.3416;293.1473;240.9542;294.166;0;-2.94E-6;0;Intelsat
1.00348188;0.0010971;2.3403;293.1443;240.9176;141.6989;0;-2.94E-6;0;Intelsat
1.00347983;0.0010975;2.3391;293.1413;240.8673;323.2911;0;-2.93E-6;0;Intelsat
1.00347756;0.0010992;2.3378;293.138;240.8361;170.8124;0;-2.93E-6;0;Intelsat
1.00347212;0.0011014;2.3347;293.1299;240.7098;303.6923;0;-2.92E-6;0;Intelsat
1.00346972;0.0011037;2.3333;293.1265;240.6441;177.1812;0;-2.91E-6;0;Intelsat
1.00346798;0.0011042;2.3325;293.1242;240.6045;306.8719;0;-2.9E-6;0;Intelsat
1.0034637;0.0011073;2.33;293.1184;240.4762;342.115;0;-2.88E-6;0;Intelsat
1.00346008;0.0011098;2.3279;293.1131;240.3856;307.7972;0;-2.86E-6;0;Intelsat
1.00345627;0.0011128;2.3256;293.1073;240.2763;316.5205;0;-2.83E-6;0;Intelsat
1.00345271;0.0011158;2.3234;293.1019;240.1817;301.9864;0;-2.81E-6;0;Intelsat
1.00345121;0.0011166;2.3227;293.0999;240.1324;63.482;0;-2.8E-6;0;Intelsat
1.00344841;0.0011191;2.3209;293.0955;240.071;340.6465;0;-2.78E-6;0;Intelsat
1.00344662;0.0011212;2.3199;293.0925;240.0144;144.4743;0;-2.77E-6;0;Intelsat
1.00344345;0.0011241;2.3181;293.087;239.9435;82.0653;0;-2.76E-6;0;Intelsat
1.00344038;0.0011274;2.3164;293.0826;239.8838;353.8731;0;-2.76E-6;0;Intelsat
1.0034368;0.0011314;2.3143;293.0763;239.8244;334.7534;0;-2.76E-6;0;Intelsat
1.00343473;0.0011321;2.3132;293.0731;239.8015;153.9335;0;-2.77E-6;0;Intelsat
1.0034329;0.0011344;2.3121;293.0698;239.7817;335.4694;0;-2.77E-6;0;Intelsat
1.00342937;0.0011377;2.3099;293.0634;239.7586;338.5826;0;-2.8E-6;0;Intelsat
1.00342575;0.0011407;2.3079;293.0575;239.7447;309.1745;0;-2.83E-6;0;Intelsat
1.00342078;0.001145;2.3055;293.0511;239.7561;344.7498;0;-2.87E-6;0;Intelsat
1.00341968;0.0011461;2.3046;293.0482;239.7881;140.3258;0;-2.89E-6;0;Intelsat
1.00341763;0.0011479;2.3034;293.045;239.801;342.035;0;-2.91E-6;0;Intelsat
